0 VANGUARD 2
1    11U 59001A   19116.21266459 -.00000024  00000-0 -78773-5 0  9995
2    11  32.8652 185.5608 1468224  50.5449 321.6126 11.85623960567074
0 VANGUARD R/B
1    12U 59001B   19116.15796438  .00000180  00000-0  11361-3 0  9993
2    12  32.9008  14.4234 1664116  36.8424 333.5685 11.44240719474637
0 VANGUARD 3
1    20U 59007A   19116.44879401  .00000334  00000-0  12376-3 0  9990
2    20  33.3480 231.1517 1666356 209.4800 140.0739 11.55625171182268
0 EXPLORER 7
1    22U 59009A   19115.93136570 +.00000223 +00000-0 +40182-4 0  9994
2    22 050.2835 265.3096 0140349 100.1091 261.5721 14.94839629407766
0 EXPLORER 7
1    22U 59009A   19116.19876253  .00000193  00000-0  37990-4 0  9991
2    22  50.2835 264.0555 0140342 101.1327 260.5436 14.94839706162753
0 TIROS 1
1    29U 60002B   19116.51108607 -.00000151  00000-0  84602-5 0  9998
2    29  48.3786 120.9274 0024689 245.2497 114.5845 14.74299775156988
0 TRANSIT 2A
1    45U 60007A   19115.94599377 -.00000048 +00000-0 +15197-4 0  9992
2    45 066.6962 043.7428 0263048 260.5846 096.5432 14.33634836005845
0 SOLRAD 1 (GREB)
1    46U 60007B   19116.19089681 -.00000009  00000-0  21355-4 0  9993
2    46  66.6895  96.6166 0202580  82.6025 279.8052 14.49219305 78495
0 THOR ABLESTAR R/B
1    47U 60007C   19116.21213698 -.00000033  00000-0  17875-4 0  9993
2    47  66.6658 193.2687 0235051 249.9313 107.6355 14.42030198 74812
0 DELTA 1 R/B
1    50U 60009B   19116.75899560 -.00000027  00000-0  55669-3 0  9991
2    50  47.2325 337.6491 0113517 160.7534 199.7592 12.20107654619676
0 COURIER 1B
1    58U 60013A   19116.29398640  .00000083  00000-0 -80686-5 0  9997
2    58  28.3291  56.0479 0165034 207.2937 151.8854 13.46317377882754
0 THOR ABLESTAR R/B
1    59U 60013B   19116.48249755  .00000098  00000-0  16630-4 0  9993
2    59  28.2475 205.2121 0189272  18.0664 342.6501 13.52968294890468
0 SCOUT X-1 R/B
1    82U 61004B   19116.44212459  .00000058  00000-0  71951-4 0  9990
2    82  38.8628 306.1700 1175805 226.1645 123.5792 12.26030018756502
0 EXPLORER 11
1   107U 61013A   19116.07210441  .00000335  00000-0  22027-4 0  9994
2   107  28.7921  23.9758 0547487 232.4736 122.4856 14.08769429906727
0 EXPLORER 11
1   107U 61013A   19115.85956158 +.00000333 +00000-0 +21785-4 0  9999
2   107 028.7920 025.1756 0547500 230.5298 124.5596 14.08769321907148
0 THOR ABLE DEB (YO)
1   115U 60002D   19116.06506284 -.00000079  00000-0  17699-4 0  9997
2   115  48.1656 125.8489 0035020 206.3026 153.6109 14.83431244150853
0 TRANSIT 4A
1   116U 61015A   19116.52664591 -.00000072  00000-0  42859-5 0  9990
2   116  66.8071 149.8718 0081940 299.3438  59.9474 13.91751043934149
0 SOLRAD 3/INJUN 1
1   117U 61015B   19116.51842126 -.00000051  00000-0  19912-4 0  9992
2   117  66.8126 242.3424 0082465 318.2934  41.1876 13.89838345931952
0 SOLRAD 3/INJUN 1
1   117U 61015B   19115.72685290 -.00000048 +00000-0 +22948-4 0  9990
2   117 066.8125 244.2712 0082405 318.8134 040.6744 13.89838328931436
0 THOR ABLESTAR R/B
1   118U 61015C   19115.94476051 -.00000020 +00000-0 +38150-4 0  9990
2   118 066.7638 081.3906 0089206 305.5565 053.7226 14.01638763950401
0 THOR ABLESTAR R/B
1   118U 61015C   19116.15882525 -.00000019  00000-0  38506-4 0  9994
2   118  66.7638  80.8576 0089220 305.4168  53.8607 14.01638774950925
0 THOR ABLESTAR DEB
1   119U 61015D   19115.91005479 +.00000144 +00000-0 +94908-4 0  9999
2   119 066.7283 305.5895 0107213 341.9584 017.7716 14.23199910986694
0 THOR ABLESTAR DEB
1   120U 61015E   19115.91375425 +.00000230 +00000-0 +12536-3 0  9994
2   120 066.7086 019.1910 0109906 086.0029 275.3621 14.25252888976114
0 THOR ABLESTAR DEB
1   120U 61015E   19116.19444556  .00000240  00000-0  12932-3 0  9998
2   120  66.7086  18.4626 0109913  85.7727 275.5921 14.25253100976617
0 THOR ABLESTAR DEB
1   121U 61015F   19116.18716895 -.00000067  00000-0  80950-5 0  9991
2   121  66.7495  43.1080 0090778  22.4561 338.0455 13.99672091961180
0 THOR ABLESTAR DEB
1   121U 61015F   19115.90134870 -.00000068 +00000-0 +71465-5 0  9999
2   121 066.7495 043.8177 0090756 022.6606 337.8444 13.99672114961149
0 THOR ABLESTAR DEB
1   122U 61015G   19115.89764943 +.00000281 +00000-0 +65153-4 0  9990
2   122 066.7513 330.1517 0064028 105.9201 254.8985 14.68903527008928
0 THOR ABLESTAR DEB
1   122U 61015G   19116.85088280  .00000268  00000-0  63150-4 0  9990
2   122  66.7512 327.5027 0064010 105.0983 255.7229 14.68904168 29861
0 THOR ABLESTAR DEB
1   123U 61015H   19116.23051483  .00000087  00000-0  56106-4 0  9990
2   123  66.6837 151.8534 0114985  11.8819 348.4953 14.36973794  4842
0 THOR ABLESTAR DEB
1   124U 61015J   19115.87517707 +.00000085 +00000-0 +64425-4 0  9997
2   124 066.5430 296.5343 0071290 145.1900 215.3891 14.30329286985272
0 THOR ABLESTAR DEB
1   124U 61015J   19116.85410612  .00000069  00000-0  58347-4 0  9991
2   124  66.5430 293.9559 0071221 144.4709 216.1161 14.30329356985902
0 THOR ABLESTAR DEB
1   125U 61015K   19116.45199154  .00000217  00000-0  17763-3 0  9994
2   125  66.8765 324.1531 0073297 177.6309 182.5140 14.05447301950967
0 THOR ABLESTAR DEB
1   127U 61015M   19115.93290386 +.00000141 +00000-0 +72526-4 0  9992
2   127 066.8328 024.0532 0075530 209.6003 150.0817 14.38535647990748
0 THOR ABLESTAR DEB
1   130U 61015Q   19116.82647340 -.00000030  00000-0  32571-4 0  9995
2   130  66.7713 235.4454 0091070 316.6427  42.7514 13.98684162947145
0 THOR ABLESTAR DEB
1   132U 61015S   19115.91373168 -.00000048 +00000-0 +22493-4 0  9991
2   132 066.6595 298.4169 0071394 154.7093 205.7510 13.94302692939861
0 THOR ABLESTAR DEB
1   132U 61015S   19115.98546188 -.00000045  00000-0  24332-4 0  9993
2   132  66.6595 298.2396 0071385 154.6568 205.8041 13.94302709940374
0 THOR ABLESTAR DEB
1   133U 61015T   19115.91178871 +.00000115 +00000-0 +93478-4 0  9991
2   133 067.1171 336.7626 0050431 050.7685 309.7871 14.18055120963111
0 THOR ABLESTAR DEB
1   134U 61015U   19115.90514558 -.00000027 +00000-0 +34967-4 0  9998
2   134 066.8815 344.4240 0089139 273.2012 085.8875 13.96791737941190
0 THOR ABLESTAR DEB
1   136U 61015W   19116.18273205  .00000223  00000-0  10764-3 0  9997
2   136  67.5290 100.2955 0059844 247.0574 112.4211 14.33358984982708
0 THOR ABLESTAR DEB
1   138U 61015Y   19116.89671470  .00000041  00000-0  77138-4 0  9990
2   138  67.1570  22.9405 0034494 348.9575  11.0751 14.01583028937474
0 THOR ABLESTAR DEB
1   138U 61015Y   19115.89769032 +.00000020 +00000-0 +63482-4 0  9995
2   138 067.1570 025.3877 0034421 349.6683 010.3692 14.01582670936918
0 THOR ABLESTAR DEB
1   141U 61015AB  19115.95411068 +.00000069 +00000-0 +12376-3 0  9997
2   141 066.5891 314.3105 0062262 306.6534 052.8826 13.86772246909921
0 THOR ABLESTAR DEB
1   141U 61015AB  19116.89166107  .00000053  00000-0  11023-3 0  9993
2   141  66.5889 312.0171 0062302 306.0925  53.4390 13.86772357910310
0 THOR ABLESTAR DEB
1   144U 61015AE  19116.15081517  .00000025  00000-0  83243-4 0  9999
2   144  66.5016 353.3895 0047939 232.2123 127.4607 13.90014936922396
0 THOR ABLESTAR DEB
1   144U 61015AE  19115.93496240 +.00000026 +00000-0 +84250-4 0  9997
2   144 066.5016 353.9222 0047952 232.3426 127.3295 13.90014898921879
0 THOR ABLESTAR DEB
1   145U 61015AF  19115.95919802 +.00000073 +00000-0 +98677-4 0  9994
2   145 066.9284 359.6301 0058768 052.7283 307.9140 14.01268707950964
0 THOR ABLESTAR DEB
1   145U 61015AF  19116.88706298  .00000081  00000-0  10388-3 0  9991
2   145  66.9283 357.3368 0058813  51.9880 308.6495 14.01269120951575
0 THOR ABLESTAR DEB
1   148U 61015AJ  19115.95968898 +.00000215 +00000-0 +16665-3 0  9990
2   148 065.7748 096.8596 0156019 211.0066 148.1733 14.05533311391830
0 THOR ABLESTAR DEB
1   148U 61015AJ  19116.31546265  .00000232  00000-0  17613-3 0  9994
2   148  65.7748  95.9320 0155976 210.8320 148.3529 14.05533468392374
0 THOR ABLESTAR DEB
1   152U 61015AN  19116.35306001 -.00000024  00000-0  29980-4 0  9996
2   152  66.5924 112.9709 0152430 170.6110 189.7885 14.09152506958283
0 THOR ABLESTAR DEB
1   154U 61015AQ  19116.53161454 -.00000083  00000-0 -13714-5 0  9994
2   154  66.6588 233.7171 0084698 359.4358   0.6616 14.04408478950572
0 THOR ABLESTAR DEB
1   154U 61015AQ  19115.67704841 -.00000067 +00000-0 +82452-5 0  9997
2   154 066.6587 235.8639 0084620 000.0338 000.0738 14.04408342950046
0 THOR ABLESTAR DEB
1   155U 61015AR  19115.94122383 +.00000280 +00000-0 +11734-3 0  9992
2   155 066.8813 345.1587 0039409 125.5144 234.9646 14.39013685984662
0 TIROS 3
1   162U 61017A   19116.14164498 -.00000113  00000-0  14574-4 0  9990
2   162  47.9004 338.3835 0044455 125.1506 235.3564 14.44028366 39873
0 DELTA 1 DEB (YO)
1   167U 61017D   19116.63780003 -.00000296  00000-0 -61348-4 0  9999
2   167  47.8470 345.5283 0092238 237.9542 121.2356 14.22714697993635
0 THOR ABLESTAR DEB
1   172U 61015AY  19115.92238608 +.00000179 +00000-0 +32660-3 0  9995
2   172 067.0705 010.0555 0128369 117.1578 244.2642 13.57363912850807
0 THOR ABLESTAR DEB
1   177U 61015BB  19115.91660432 +.00000277 +00000-0 +17973-3 0  9992
2   177 066.6677 022.0063 0110756 114.5754 246.6926 14.13454397972368
0 THOR ABLESTAR DEB
1   178U 61015BC  19115.77750196 -.00000033 +00000-0 +32638-4 0  9991
2   178 066.8653 253.9340 0074553 052.7904 307.9949 13.92339417933928
0 THOR ABLESTAR DEB
1   178U 61015BC  19116.85497729 -.00000034  00000-0  32527-4 0  9999
2   178  66.8654 251.3035 0074597  51.9647 308.8135 13.92339528934500
0 MIDAS 4
1   192U 61028A   19115.89958691 +.00000011 +00000-0 +67164-2 0  9999
2   192 095.8674 034.7714 0141093 001.2529 358.8656 08.67760785821822
